KUIPER-00071            
1 64818U 25151C   25318.65266617  .00006761  00000+0  91332-3 0  9999
2 64818  51.8997  91.7654 0007270 197.6735 162.3975 14.80000957 18235
KUIPER-00072            
1 64819U 25151D   25318.48775610  .00003066  00000+0  37037-3 0  9996
2 64819  51.8997  72.3167 0002285 201.4021 158.6849 14.86373427 18490
KUIPER-00073            
1 64820U 25151E   25318.82013501  .00005244  00000+0  71260-3 0  9996
2 64820  51.8990  91.0084 0013105 228.8844 131.0987 14.80120320 19440
KUIPER-00074            
1 64821U 25151F   25318.63234837 -.00000032  00000+0  25241-4 0  9993
2 64821  51.8971  79.3661 0012341 245.4638 114.5038 14.79945359 18400
KUIPER-00075            
1 64822U 25151G   25318.47947397  .00060074  00000+0  14778-2 0  9990
2 64822  51.8785  61.3156 0004432 215.3272 144.7422 15.40037067 18641
KUIPER-00076            
1 64823U 25151H   25318.62950441  .00004955  00000+0  67694-3 0  9994
2 64823  51.8995  81.8724 0003715 240.2811 119.7782 14.80031176 18371
KUIPER-00077            
1 64824U 25151J   25318.62432333  .00006543  00000+0  88502-3 0  9996
2 64824  51.9007  86.9003 0006212 190.0350 170.0489 14.79996079 18305
KUIPER-00078            
1 64825U 25151K   25318.72825209  .00002307  00000+0  33156-3 0  9995
2 64825  51.8911  83.9378 0007570 258.8600 101.1511 14.79946624 18357
