<?xml version="1.0" encoding="UTF-8"?>
<ndm xmlns:xsi="http://www.w3.org/2001/XMLSchema-instance" xsi:noNamespaceSchemaLocation="https://sanaregistry.org/r/ndmxml_unqualified/ndmxml-2.0.0-master-2.0.xsd">
<omm id="CCSDS_OMM_VERS" version="2.0">
<header><CREATION_DATE/><ORIGINATOR/></header><body><segment><metadata><OBJECT_NAME>KUIPER-00071</OBJECT_NAME><OBJECT_ID>2025-151C</OBJECT_ID><CENTER_NAME>EARTH</CENTER_NAME><REF_FRAME>TEME</REF_FRAME><TIME_SYSTEM>UTC</TIME_SYSTEM><MEAN_ELEMENT_THEORY>SGP4</MEAN_ELEMENT_THEORY></metadata><data><meanElements><EPOCH>2025-11-14T15:39:50.357088</EPOCH><MEAN_MOTION>14.80000957</MEAN_MOTION><ECCENTRICITY>.000727</ECCENTRICITY><INCLINATION>51.8997</INCLINATION><RA_OF_ASC_NODE>91.7654</RA_OF_ASC_NODE><ARG_OF_PERICENTER>197.6735</ARG_OF_PERICENTER><MEAN_ANOMALY>162.3975</MEAN_ANOMALY></meanElements><tleParameters><EPHEMERIS_TYPE>0</EPHEMERIS_TYPE><CLASSIFICATION_TYPE>U</CLASSIFICATION_TYPE><NORAD_CAT_ID>64818</NORAD_CAT_ID><ELEMENT_SET_NO>999</ELEMENT_SET_NO><REV_AT_EPOCH>1823</REV_AT_EPOCH><BSTAR>.91332E-3</BSTAR><MEAN_MOTION_DOT>.6761E-4</MEAN_MOTION_DOT><MEAN_MOTION_DDOT>0</MEAN_MOTION_DDOT></tleParameters></data></segment></body></omm>
<omm id="CCSDS_OMM_VERS" version="2.0">
<header><CREATION_DATE/><ORIGINATOR/></header><body><segment><metadata><OBJECT_NAME>KUIPER-00072</OBJECT_NAME><OBJECT_ID>2025-151D</OBJECT_ID><CENTER_NAME>EARTH</CENTER_NAME><REF_FRAME>TEME</REF_FRAME><TIME_SYSTEM>UTC</TIME_SYSTEM><MEAN_ELEMENT_THEORY>SGP4</MEAN_ELEMENT_THEORY></metadata><data><meanElements><EPOCH>2025-11-14T11:42:22.127040</EPOCH><MEAN_MOTION>14.86373427</MEAN_MOTION><ECCENTRICITY>.0002285</ECCENTRICITY><INCLINATION>51.8997</INCLINATION><RA_OF_ASC_NODE>72.3167</RA_OF_ASC_NODE><ARG_OF_PERICENTER>201.4021</ARG_OF_PERICENTER><MEAN_ANOMALY>158.6849</MEAN_ANOMALY></meanElements><tleParameters><EPHEMERIS_TYPE>0</EPHEMERIS_TYPE><CLASSIFICATION_TYPE>U</CLASSIFICATION_TYPE><NORAD_CAT_ID>64819</NORAD_CAT_ID><ELEMENT_SET_NO>999</ELEMENT_SET_NO><REV_AT_EPOCH>1849</REV_AT_EPOCH><BSTAR>.37037E-3</BSTAR><MEAN_MOTION_DOT>.3066E-4</MEAN_MOTION_DOT><MEAN_MOTION_DDOT>0</MEAN_MOTION_DDOT></tleParameters></data></segment></body></omm>
<omm id="CCSDS_OMM_VERS" version="2.0">
<header><CREATION_DATE/><ORIGINATOR/></header><body><segment><metadata><OBJECT_NAME>KUIPER-00073</OBJECT_NAME><OBJECT_ID>2025-151E</OBJECT_ID><CENTER_NAME>EARTH</CENTER_NAME><REF_FRAME>TEME</REF_FRAME><TIME_SYSTEM>UTC</TIME_SYSTEM><MEAN_ELEMENT_THEORY>SGP4</MEAN_ELEMENT_THEORY></metadata><data><meanElements><EPOCH>2025-11-14T19:40:59.664864</EPOCH><MEAN_MOTION>14.80120320</MEAN_MOTION><ECCENTRICITY>.0013105</ECCENTRICITY><INCLINATION>51.8990</INCLINATION><RA_OF_ASC_NODE>91.0084</RA_OF_ASC_NODE><ARG_OF_PERICENTER>228.8844</ARG_OF_PERICENTER><MEAN_ANOMALY>131.0987</MEAN_ANOMALY></meanElements><tleParameters><EPHEMERIS_TYPE>0</EPHEMERIS_TYPE><CLASSIFICATION_TYPE>U</CLASSIFICATION_TYPE><NORAD_CAT_ID>64820</NORAD_CAT_ID><ELEMENT_SET_NO>999</ELEMENT_SET_NO><REV_AT_EPOCH>1944</REV_AT_EPOCH><BSTAR>.7126E-3</BSTAR><MEAN_MOTION_DOT>.5244E-4</MEAN_MOTION_DOT><MEAN_MOTION_DDOT>0</MEAN_MOTION_DDOT></tleParameters></data></segment></body></omm>
<omm id="CCSDS_OMM_VERS" version="2.0">
<header><CREATION_DATE/><ORIGINATOR/></header><body><segment><metadata><OBJECT_NAME>KUIPER-00074</OBJECT_NAME><OBJECT_ID>2025-151F</OBJECT_ID><CENTER_NAME>EARTH</CENTER_NAME><REF_FRAME>TEME</REF_FRAME><TIME_SYSTEM>UTC</TIME_SYSTEM><MEAN_ELEMENT_THEORY>SGP4</MEAN_ELEMENT_THEORY></metadata><data><meanElements><EPOCH>2025-11-14T15:10:34.899168</EPOCH><MEAN_MOTION>14.79945359</MEAN_MOTION><ECCENTRICITY>.0012341</ECCENTRICITY><INCLINATION>51.8971</INCLINATION><RA_OF_ASC_NODE>79.3661</RA_OF_ASC_NODE><ARG_OF_PERICENTER>245.4638</ARG_OF_PERICENTER><MEAN_ANOMALY>114.5038</MEAN_ANOMALY></meanElements><tleParameters><EPHEMERIS_TYPE>0</EPHEMERIS_TYPE><CLASSIFICATION_TYPE>U</CLASSIFICATION_TYPE><NORAD_CAT_ID>64821</NORAD_CAT_ID><ELEMENT_SET_NO>999</ELEMENT_SET_NO><REV_AT_EPOCH>1840</REV_AT_EPOCH><BSTAR>.25241E-4</BSTAR><MEAN_MOTION_DOT>-.32E-6</MEAN_MOTION_DOT><MEAN_MOTION_DDOT>0</MEAN_MOTION_DDOT></tleParameters></data></segment></body></omm>
<omm id="CCSDS_OMM_VERS" version="2.0">
<header><CREATION_DATE/><ORIGINATOR/></header><body><segment><metadata><OBJECT_NAME>KUIPER-00075</OBJECT_NAME><OBJECT_ID>2025-151G</OBJECT_ID><CENTER_NAME>EARTH</CENTER_NAME><REF_FRAME>TEME</REF_FRAME><TIME_SYSTEM>UTC</TIME_SYSTEM><MEAN_ELEMENT_THEORY>SGP4</MEAN_ELEMENT_THEORY></metadata><data><meanElements><EPOCH>2025-11-14T11:30:26.551008</EPOCH><MEAN_MOTION>15.40037067</MEAN_MOTION><ECCENTRICITY>.0004432</ECCENTRICITY><INCLINATION>51.8785</INCLINATION><RA_OF_ASC_NODE>61.3156</RA_OF_ASC_NODE><ARG_OF_PERICENTER>215.3272</ARG_OF_PERICENTER><MEAN_ANOMALY>144.7422</MEAN_ANOMALY></meanElements><tleParameters><EPHEMERIS_TYPE>0</EPHEMERIS_TYPE><CLASSIFICATION_TYPE>U</CLASSIFICATION_TYPE><NORAD_CAT_ID>64822</NORAD_CAT_ID><ELEMENT_SET_NO>999</ELEMENT_SET_NO><REV_AT_EPOCH>1864</REV_AT_EPOCH><BSTAR>.14778E-2</BSTAR><MEAN_MOTION_DOT>.60074E-3</MEAN_MOTION_DOT><MEAN_MOTION_DDOT>0</MEAN_MOTION_DDOT></tleParameters></data></segment></body></omm>
<omm id="CCSDS_OMM_VERS" version="2.0">
<header><CREATION_DATE/><ORIGINATOR/></header><body><segment><metadata><OBJECT_NAME>KUIPER-00076</OBJECT_NAME><OBJECT_ID>2025-151H</OBJECT_ID><CENTER_NAME>EARTH</CENTER_NAME><REF_FRAME>TEME</REF_FRAME><TIME_SYSTEM>UTC</TIME_SYSTEM><MEAN_ELEMENT_THEORY>SGP4</MEAN_ELEMENT_THEORY></metadata><data><meanElements><EPOCH>2025-11-14T15:06:29.181024</EPOCH><MEAN_MOTION>14.80031176</MEAN_MOTION><ECCENTRICITY>.0003715</ECCENTRICITY><INCLINATION>51.8995</INCLINATION><RA_OF_ASC_NODE>81.8724</RA_OF_ASC_NODE><ARG_OF_PERICENTER>240.2811</ARG_OF_PERICENTER><MEAN_ANOMALY>119.7782</MEAN_ANOMALY></meanElements><tleParameters><EPHEMERIS_TYPE>0</EPHEMERIS_TYPE><CLASSIFICATION_TYPE>U</CLASSIFICATION_TYPE><NORAD_CAT_ID>64823</NORAD_CAT_ID><ELEMENT_SET_NO>999</ELEMENT_SET_NO><REV_AT_EPOCH>1837</REV_AT_EPOCH><BSTAR>.67694E-3</BSTAR><MEAN_MOTION_DOT>.4955E-4</MEAN_MOTION_DOT><MEAN_MOTION_DDOT>0</MEAN_MOTION_DDOT></tleParameters></data></segment></body></omm>
<omm id="CCSDS_OMM_VERS" version="2.0">
<header><CREATION_DATE/><ORIGINATOR/></header><body><segment><metadata><OBJECT_NAME>KUIPER-00077</OBJECT_NAME><OBJECT_ID>2025-151J</OBJECT_ID><CENTER_NAME>EARTH</CENTER_NAME><REF_FRAME>TEME</REF_FRAME><TIME_SYSTEM>UTC</TIME_SYSTEM><MEAN_ELEMENT_THEORY>SGP4</MEAN_ELEMENT_THEORY></metadata><data><meanElements><EPOCH>2025-11-14T14:59:01.535712</EPOCH><MEAN_MOTION>14.79996079</MEAN_MOTION><ECCENTRICITY>.0006212</ECCENTRICITY><INCLINATION>51.9007</INCLINATION><RA_OF_ASC_NODE>86.9003</RA_OF_ASC_NODE><ARG_OF_PERICENTER>190.0350</ARG_OF_PERICENTER><MEAN_ANOMALY>170.0489</MEAN_ANOMALY></meanElements><tleParameters><EPHEMERIS_TYPE>0</EPHEMERIS_TYPE><CLASSIFICATION_TYPE>U</CLASSIFICATION_TYPE><NORAD_CAT_ID>64824</NORAD_CAT_ID><ELEMENT_SET_NO>999</ELEMENT_SET_NO><REV_AT_EPOCH>1830</REV_AT_EPOCH><BSTAR>.88502E-3</BSTAR><MEAN_MOTION_DOT>.6543E-4</MEAN_MOTION_DOT><MEAN_MOTION_DDOT>0</MEAN_MOTION_DDOT></tleParameters></data></segment></body></omm>
<omm id="CCSDS_OMM_VERS" version="2.0">
<header><CREATION_DATE/><ORIGINATOR/></header><body><segment><metadata><OBJECT_NAME>KUIPER-00078</OBJECT_NAME><OBJECT_ID>2025-151K</OBJECT_ID><CENTER_NAME>EARTH</CENTER_NAME><REF_FRAME>TEME</REF_FRAME><TIME_SYSTEM>UTC</TIME_SYSTEM><MEAN_ELEMENT_THEORY>SGP4</MEAN_ELEMENT_THEORY></metadata><data><meanElements><EPOCH>2025-11-14T17:28:40.980576</EPOCH><MEAN_MOTION>14.79946624</MEAN_MOTION><ECCENTRICITY>.000757</ECCENTRICITY><INCLINATION>51.8911</INCLINATION><RA_OF_ASC_NODE>83.9378</RA_OF_ASC_NODE><ARG_OF_PERICENTER>258.8600</ARG_OF_PERICENTER><MEAN_ANOMALY>101.1511</MEAN_ANOMALY></meanElements><tleParameters><EPHEMERIS_TYPE>0</EPHEMERIS_TYPE><CLASSIFICATION_TYPE>U</CLASSIFICATION_TYPE><NORAD_CAT_ID>64825</NORAD_CAT_ID><ELEMENT_SET_NO>999</ELEMENT_SET_NO><REV_AT_EPOCH>1835</REV_AT_EPOCH><BSTAR>.33156E-3</BSTAR><MEAN_MOTION_DOT>.2307E-4</MEAN_MOTION_DOT><MEAN_MOTION_DDOT>0</MEAN_MOTION_DDOT></tleParameters></data></segment></body></omm>

</ndm>
